ONEWEB-0435             
1 51632U 22012L   26189.49867125  .00014967  00000+0  42819-1 0  9993
2 51632  87.8800  32.0310 0001995 111.4396 248.6944 13.10295330212108
ONEWEB-0436             
1 51633U 22012M   26189.39839701  .00000036  00000+0  58643-4 0  9999
2 51633  87.9147   1.6264 0001821  95.6659 264.4680 13.17650708216475
ONEWEB-0438             
1 51634U 22012N   26189.25430841  .00000568  00000+0  15895-2 0  9997
2 51634  87.8816  32.0828 0001924  81.5531 278.5815 13.10373474212106
ONEWEB-0439             
1 51635U 22012P   26189.48677909  .00000381  00000+0  10555-2 0  9992
2 51635  87.8813  32.0236 0001846  83.6128 276.5209 13.10371895212116
ONEWEB-0442             
1 51636U 22012Q   26189.23895356  .00000057  00000+0  11353-3 0  9992
2 51636  87.9138   1.6895 0001948  74.2756 285.8590 13.17650145216448
ONEWEB-0443             
1 51637U 22012R   26189.41020792  .00000074  00000+0  15842-3 0  9993
2 51637  87.9139   1.6564 0001523  90.1302 270.0004 13.17649926216515
ONEWEB-0444             
1 51638U 22012S   26189.32388491  .00000663  00000+0  18616-2 0  9992
2 51638  87.8817  32.0547 0001679  87.2505 272.8814 13.10374607212105
ONEWEB-0445             
1 51639U 22012T   26189.49694630 -.00000892  00000+0 -25917-2 0  9994
2 51639  87.8820  32.0101 0002064  86.6839 273.4524 13.10359174212138
ONEWEB-0446             
1 51640U 22012U   26189.01673693  .00000718  00000+0  20194-2 0  9997
2 51640  87.8817  32.1332 0002201  84.9288 275.2090 13.10371506212057
ONEWEB-0448             
1 51641U 22012V   26189.32727946  .00000569  00000+0  15942-2 0  9992
2 51641  87.8813  32.0671 0001825  85.6884 274.4451 13.10374282212067
ONEWEB-0449             
1 51642U 22012W   26188.95056567  .00000388  00000+0  10759-2 0  9995
2 51642  87.8818  32.1290 0002086  70.0853 290.0499 13.10370711212020
ONEWEB-0451             
1 51643U 22012X   26189.47096663  .00000085  00000+0  18576-3 0  9995
2 51643  87.9149   1.6104 0001771  85.7601 274.3732 13.17650408216466
ONEWEB-0452             
1 51644U 22012Y   26189.24145840  .00000001  00000+0 -30072-4 0  9998
2 51644  87.9142   1.6910 0001596  86.4228 273.7086 13.17650576216442
ONEWEB-0456             
1 51646U 22012AA  26189.49352801  .00000076  00000+0  18101-3 0  9993
2 51646  87.8822  32.0097 0001782  92.2038 267.9294 13.10369162212132
ONEWEB-0457             
1 51647U 22012AB  26189.54773133  .00000686  00000+0  19278-2 0  9997
2 51647  87.8818  32.0148 0002176  81.3747 278.7627 13.10376411212145
ONEWEB-0458             
1 51648U 22012AC  26189.49269992  .00000011  00000+0 -44224-5 0  9990
2 51648  87.8820  32.0140 0001675  83.3295 276.8023 13.10369156212095
