{"fetched_at":"2026-07-08T17:59:25.198Z","source":"https://celestrak.org/NORAD/elements/gp.php?GROUP=oneweb&FORMAT=JSON","constellation":"oneweb","records":[{"OBJECT_NAME":"ONEWEB-0435","OBJECT_ID":"2022-012L","EPOCH":"2026-07-08T11:58:05.196000","CLASSIFICATION_TYPE":"U","MEAN_MOTION":13.1029533,"ECCENTRICITY":0.0001995,"INCLINATION":87.88,"RA_OF_ASC_NODE":32.031,"ARG_OF_PERICENTER":111.4396,"MEAN_ANOMALY":248.6944,"EPHEMERIS_TYPE":0,"NORAD_CAT_ID":51632,"ELEMENT_SET_NO":999,"REV_AT_EPOCH":21210,"BSTAR":0.042819,"MEAN_MOTION_DOT":0.00014967,"MEAN_MOTION_DDOT":0},{"OBJECT_NAME":"ONEWEB-0436","OBJECT_ID":"2022-012M","EPOCH":"2026-07-08T09:33:41.501664","CLASSIFICATION_TYPE":"U","MEAN_MOTION":13.17650708,"ECCENTRICITY":0.0001821,"INCLINATION":87.9147,"RA_OF_ASC_NODE":1.6264,"ARG_OF_PERICENTER":95.6659,"MEAN_ANOMALY":264.468,"EPHEMERIS_TYPE":0,"NORAD_CAT_ID":51633,"ELEMENT_SET_NO":999,"REV_AT_EPOCH":21647,"BSTAR":0.000058643,"MEAN_MOTION_DOT":3.6e-7,"MEAN_MOTION_DDOT":0},{"OBJECT_NAME":"ONEWEB-0438","OBJECT_ID":"2022-012N","EPOCH":"2026-07-08T06:06:12.246624","CLASSIFICATION_TYPE":"U","MEAN_MOTION":13.10373474,"ECCENTRICITY":0.0001924,"INCLINATION":87.8816,"RA_OF_ASC_NODE":32.0828,"ARG_OF_PERICENTER":81.5531,"MEAN_ANOMALY":278.5815,"EPHEMERIS_TYPE":0,"NORAD_CAT_ID":51634,"ELEMENT_SET_NO":999,"REV_AT_EPOCH":21210,"BSTAR":0.0015895,"MEAN_MOTION_DOT":0.00000568,"MEAN_MOTION_DDOT":0},{"OBJECT_NAME":"ONEWEB-0439","OBJECT_ID":"2022-012P","EPOCH":"2026-07-08T11:40:57.713376","CLASSIFICATION_TYPE":"U","MEAN_MOTION":13.10371895,"ECCENTRICITY":0.0001846,"INCLINATION":87.8813,"RA_OF_ASC_NODE":32.0236,"ARG_OF_PERICENTER":83.6128,"MEAN_ANOMALY":276.5209,"EPHEMERIS_TYPE":0,"NORAD_CAT_ID":51635,"ELEMENT_SET_NO":999,"REV_AT_EPOCH":21211,"BSTAR":0.0010555,"MEAN_MOTION_DOT":0.00000381,"MEAN_MOTION_DDOT":0},{"OBJECT_NAME":"ONEWEB-0442","OBJECT_ID":"2022-012Q","EPOCH":"2026-07-08T05:44:05.587584","CLASSIFICATION_TYPE":"U","MEAN_MOTION":13.17650145,"ECCENTRICITY":0.0001948,"INCLINATION":87.9138,"RA_OF_ASC_NODE":1.6895,"ARG_OF_PERICENTER":74.2756,"MEAN_ANOMALY":285.859,"EPHEMERIS_TYPE":0,"NORAD_CAT_ID":51636,"ELEMENT_SET_NO":999,"REV_AT_EPOCH":21644,"BSTAR":0.00011353,"MEAN_MOTION_DOT":5.7e-7,"MEAN_MOTION_DDOT":0},{"OBJECT_NAME":"ONEWEB-0443","OBJECT_ID":"2022-012R","EPOCH":"2026-07-08T09:50:41.964288","CLASSIFICATION_TYPE":"U","MEAN_MOTION":13.17649926,"ECCENTRICITY":0.0001523,"INCLINATION":87.9139,"RA_OF_ASC_NODE":1.6564,"ARG_OF_PERICENTER":90.1302,"MEAN_ANOMALY":270.0004,"EPHEMERIS_TYPE":0,"NORAD_CAT_ID":51637,"ELEMENT_SET_NO":999,"REV_AT_EPOCH":21651,"BSTAR":0.00015842,"MEAN_MOTION_DOT":7.4e-7,"MEAN_MOTION_DDOT":0},{"OBJECT_NAME":"ONEWEB-0444","OBJECT_ID":"2022-012S","EPOCH":"2026-07-08T07:46:23.656224","CLASSIFICATION_TYPE":"U","MEAN_MOTION":13.10374607,"ECCENTRICITY":0.0001679,"INCLINATION":87.8817,"RA_OF_ASC_NODE":32.0547,"ARG_OF_PERICENTER":87.2505,"MEAN_ANOMALY":272.8814,"EPHEMERIS_TYPE":0,"NORAD_CAT_ID":51638,"ELEMENT_SET_NO":999,"REV_AT_EPOCH":21210,"BSTAR":0.0018616,"MEAN_MOTION_DOT":0.00000663,"MEAN_MOTION_DDOT":0},{"OBJECT_NAME":"ONEWEB-0445","OBJECT_ID":"2022-012T","EPOCH":"2026-07-08T11:55:36.160320","CLASSIFICATION_TYPE":"U","MEAN_MOTION":13.10359174,"ECCENTRICITY":0.0002064,"INCLINATION":87.882,"RA_OF_ASC_NODE":32.0101,"ARG_OF_PERICENTER":86.6839,"MEAN_ANOMALY":273.4524,"EPHEMERIS_TYPE":0,"NORAD_CAT_ID":51639,"ELEMENT_SET_NO":999,"REV_AT_EPOCH":21213,"BSTAR":-0.0025917,"MEAN_MOTION_DOT":-0.00000892,"MEAN_MOTION_DDOT":0},{"OBJECT_NAME":"ONEWEB-0446","OBJECT_ID":"2022-012U","EPOCH":"2026-07-08T00:24:06.070752","CLASSIFICATION_TYPE":"U","MEAN_MOTION":13.10371506,"ECCENTRICITY":0.0002201,"INCLINATION":87.8817,"RA_OF_ASC_NODE":32.1332,"ARG_OF_PERICENTER":84.9288,"MEAN_ANOMALY":275.209,"EPHEMERIS_TYPE":0,"NORAD_CAT_ID":51640,"ELEMENT_SET_NO":999,"REV_AT_EPOCH":21205,"BSTAR":0.0020194,"MEAN_MOTION_DOT":0.00000718,"MEAN_MOTION_DDOT":0},{"OBJECT_NAME":"ONEWEB-0448","OBJECT_ID":"2022-012V","EPOCH":"2026-07-08T07:51:16.945344","CLASSIFICATION_TYPE":"U","MEAN_MOTION":13.10374282,"ECCENTRICITY":0.0001825,"INCLINATION":87.8813,"RA_OF_ASC_NODE":32.0671,"ARG_OF_PERICENTER":85.6884,"MEAN_ANOMALY":274.4451,"EPHEMERIS_TYPE":0,"NORAD_CAT_ID":51641,"ELEMENT_SET_NO":999,"REV_AT_EPOCH":21206,"BSTAR":0.0015942,"MEAN_MOTION_DOT":0.00000569,"MEAN_MOTION_DDOT":0},{"OBJECT_NAME":"ONEWEB-0449","OBJECT_ID":"2022-012W","EPOCH":"2026-07-07T22:48:48.873888","CLASSIFICATION_TYPE":"U","MEAN_MOTION":13.10370711,"ECCENTRICITY":0.0002086,"INCLINATION":87.8818,"RA_OF_ASC_NODE":32.129,"ARG_OF_PERICENTER":70.0853,"MEAN_ANOMALY":290.0499,"EPHEMERIS_TYPE":0,"NORAD_CAT_ID":51642,"ELEMENT_SET_NO":999,"REV_AT_EPOCH":21202,"BSTAR":0.0010759,"MEAN_MOTION_DOT":0.00000388,"MEAN_MOTION_DDOT":0},{"OBJECT_NAME":"ONEWEB-0451","OBJECT_ID":"2022-012X","EPOCH":"2026-07-08T11:18:11.516832","CLASSIFICATION_TYPE":"U","MEAN_MOTION":13.17650408,"ECCENTRICITY":0.0001771,"INCLINATION":87.9149,"RA_OF_ASC_NODE":1.6104,"ARG_OF_PERICENTER":85.7601,"MEAN_ANOMALY":274.3732,"EPHEMERIS_TYPE":0,"NORAD_CAT_ID":51643,"ELEMENT_SET_NO":999,"REV_AT_EPOCH":21646,"BSTAR":0.00018576,"MEAN_MOTION_DOT":8.5e-7,"MEAN_MOTION_DDOT":0},{"OBJECT_NAME":"ONEWEB-0452","OBJECT_ID":"2022-012Y","EPOCH":"2026-07-08T05:47:42.005760","CLASSIFICATION_TYPE":"U","MEAN_MOTION":13.17650576,"ECCENTRICITY":0.0001596,"INCLINATION":87.9142,"RA_OF_ASC_NODE":1.691,"ARG_OF_PERICENTER":86.4228,"MEAN_ANOMALY":273.7086,"EPHEMERIS_TYPE":0,"NORAD_CAT_ID":51644,"ELEMENT_SET_NO":999,"REV_AT_EPOCH":21644,"BSTAR":-0.000030072,"MEAN_MOTION_DOT":1e-8,"MEAN_MOTION_DDOT":0},{"OBJECT_NAME":"ONEWEB-0456","OBJECT_ID":"2022-012AA","EPOCH":"2026-07-08T11:50:40.820064","CLASSIFICATION_TYPE":"U","MEAN_MOTION":13.10369162,"ECCENTRICITY":0.0001782,"INCLINATION":87.8822,"RA_OF_ASC_NODE":32.0097,"ARG_OF_PERICENTER":92.2038,"MEAN_ANOMALY":267.9294,"EPHEMERIS_TYPE":0,"NORAD_CAT_ID":51646,"ELEMENT_SET_NO":999,"REV_AT_EPOCH":21213,"BSTAR":0.00018101,"MEAN_MOTION_DOT":7.6e-7,"MEAN_MOTION_DDOT":0},{"OBJECT_NAME":"ONEWEB-0457","OBJECT_ID":"2022-012AB","EPOCH":"2026-07-08T13:08:43.986912","CLASSIFICATION_TYPE":"U","MEAN_MOTION":13.10376411,"ECCENTRICITY":0.0002176,"INCLINATION":87.8818,"RA_OF_ASC_NODE":32.0148,"ARG_OF_PERICENTER":81.3747,"MEAN_ANOMALY":278.7627,"EPHEMERIS_TYPE":0,"NORAD_CAT_ID":51647,"ELEMENT_SET_NO":999,"REV_AT_EPOCH":21214,"BSTAR":0.0019278,"MEAN_MOTION_DOT":0.00000686,"MEAN_MOTION_DDOT":0},{"OBJECT_NAME":"ONEWEB-0458","OBJECT_ID":"2022-012AC","EPOCH":"2026-07-08T11:49:29.273088","CLASSIFICATION_TYPE":"U","MEAN_MOTION":13.10369156,"ECCENTRICITY":0.0001675,"INCLINATION":87.882,"RA_OF_ASC_NODE":32.014,"ARG_OF_PERICENTER":83.3295,"MEAN_ANOMALY":276.8023,"EPHEMERIS_TYPE":0,"NORAD_CAT_ID":51648,"ELEMENT_SET_NO":999,"REV_AT_EPOCH":21209,"BSTAR":-0.0000044224,"MEAN_MOTION_DOT":1.1e-7,"MEAN_MOTION_DDOT":0}]}
